P/2021 PE20 (ATLAS),e,19.9997,99.6242,210.4402,3.745938,0.1359450,0.66989760,191.4646,04/14.0/2025,2000,g 17.0,4.0
# From MPEC 2023-FK0
C/2021 Q3 (ATLAS),e,77.7184,307.9101,114.1422,75.19316,0.0015116,0.93073475,1.7744,04/14.0/2025,2000,g  8.0,4.0
# From MPEC 2025-A40
C/2021 Q4 (Fuls),h,06/11.2926/2023,71.5244,183.3280,147.0666,1.002023,7.565450,2000,6.0,4.0
# From MPEC 2022-C56
P/2021 Q5 (ATLAS),e,10.7387,239.7560,180.9548,3.286930,0.1653935,0.62459289,218.5977,04/14.0/2025,2000,g 15.0,4.0
# From MPEC 2024-UA9
C/2021 Q6 (PANSTARRS),h,03/25.2156/2024,161.8263,133.5738,141.0641,1.002709,8.707759,2000,6.0,4.0
# From MPEC 2023-FK0
C/2021 QM45 (PANSTARRS),e,22.8014,354.5970,72.9121,407.6585,0.0001197,0.99318650,0.0000,08/13.6950/2022,2000,g 11.0,4.0
# From MPEC 2022-X67
P/2021 R1 (PANSTARRS),e,5.5306,143.1281,220.0734,8.259520,0.0415214,0.40862314,50.7125,04/14.0/2025,2000,g 11.0,4.0
# From MPEC 2022-X67
C/2021 R2 (PANSTARRS),e,134.4827,16.3328,32.5483,9434,0.0000011,0.99922441,0.0000,12/28.4060/2021,2000,g  7.5,4.0
# From MPEC 2021-W31
P/2021 R3 (PANSTARRS),e,19.9399,304.1933,2.6005,3.769613,0.1346663,0.33139587,191.2591,04/14.0/2025,2000,g 16.0,4.0
# From MPEC 2021-W31
P/2021 R4 (Wierzchos),e,21.0132,321.2837,56.7721,5.627508,0.0738295,0.58535455,94.3879,04/14.0/2025,2000,g 16.0,4.0
# From MPEC 2024-JU4
P/2021 R5 (Rankin),e,7.8539,219.9608,167.6044,4.797811,0.0937863,0.30602225,111.3707,04/14.0/2025,2000,g 12.0,4.0
# From MPEC 2021-W31
P/2021 R6 (Groeller),e,34.8947,176.1619,220.8743,6.288732,0.0624970,0.59310047,78.7458,04/14.0/2025,2000,g 14.5,4.0
# From MPEC 2022-X67
C/2021 R7 (PANSTARRS),e,158.8736,170.1965,140.3882,980.2631,0.0000321,0.99423170,0.0000,04/17.2251/2021,2000,g 10.5,4.0
# From MPEC 2021-Y10
P/2021 R8 (Sheppard),e,2.2027,167.0671,190.8252,3.020113,0.1877886,0.29259340,241.3594,04/14.0/2025,2000,g 18.5,4.0
# From MPEC 2023-J29
C/2021 S1 (ATLAS),h,03/01.9612/2022,52.0395,299.8578,148.2985,1.002887,6.124364,2000,7.0,4.0
# From MPC182879
C/2021 S3 (PANSTARRS),h,02/14.6793/2024,58.5371,215.6111,6.8387,1.000044,1.319857,2000,5.5,4.0
# From MPEC 2025-GB9
C/2021 S4 (Tsuchinshan),e,17.4790,5.4578,73.0276,157.3789,0.0004992,0.95748291,0.2327,04/14.0/2025,2000,g  6.5,4.0
# From MPEC 2022-OB6
C/2021 T1 (Lemmon),e,140.3549,56.8471,51.5822,2711,0.0000070,0.99887097,0.0000,10/14.7914/2021,2000,g 12.5,4.0
# From MPEC 2023-A50
C/2021 T2 (Fuls),h,06/08.2940/2022,117.5178,223.2136,263.5378,1.000541,1.244540,2000,12.0,4.0
# From MPC182879
C/2021 T4 (Lemmon),e,160.7784,257.8905,329.7789,5857,0.0000022,0.99974703,0.0000,07/31.5297/2023,2000,g  7.5,4.0
# From MPEC 2022-ED3
P/2021 U1 (Wierzchos),e,30.5516,246.7924,145.2307,8.539416,0.0394968,0.71271711,50.9965,04/14.0/2025,2000,g 14.5,4.0
# From MPEC 2022-L66
P/2021 U3 (Attard-Maury),e,69.9627,75.0932,335.3207,4.196801,0.1146375,0.54946393,145.2598,04/14.0/2025,2000,g 15.5,4.0
# From MPEC 2021-W31
C/2021 U4 (Leonard),e,152.8848,241.8066,237.3285,45.47224,0.0032143,0.96068581,3.8845,04/14.0/2025,2000,g 17.0,4.0
# From MPEC 2022-WQ9
C/2021 U5 (Catalina),e,39.0405,182.6864,321.4527,221.6465,0.0002987,0.98935610,0.0000,01/26.9402/2022,2000,g 13.0,4.0
# From MPEC 2022-CN4
C/2021 V1 (Rankin),e,71.4390,207.6936,195.2119,715.4614,0.0000515,0.99578064,0.0000,04/30.6255/2022,2000,g 13.0,4.0
# From MPEC 2024-JU4
P/2021 V2 (Fuls),e,12.6933,232.2763,259.8965,9.088543,0.0359718,0.61521041,29.2479,04/14.0/2025,2000,g 10.0,4.0
# From MPEC 2024-TD8
C/2021 X1 (Maury-Attard),h,05/27.2616/2023,140.1060,10.6110,334.6093,1.000547,3.234487,2000,7.0,4.0
# From MPEC 2024-E08
C/2021 X2 (Bok),h,07/08.3347/2022,137.1556,228.8381,193.3776,1.001453,2.997824,2000,13.0,4.0
# From MPEC 2024-GJ3
C/2021 Y1 (ATLAS),h,04/30.9013/2023,77.1899,244.7669,245.8475,1.001540,2.032511,2000,7.0,4.0
# From MPEC 2022-YN2
C/2022 A1 (Sarneczky),e,116.5694,285.4941,201.2772,368.5208,0.0001393,0.99659209,0.0000,01/31.1099/2022,2000,g 18.0,4.0
# From MPEC 2024-P23
C/2022 A2 (PANSTARRS),h,02/18.1830/2023,108.1631,171.6002,88.3673,1.000072,1.735448,2000,9.5,4.0
# From MPEC 2024-UQ8
C/2022 A3 (Lemmon-ATLAS),e,88.3480,325.4596,234.8671,885.1730,0.0000374,0.99581523,0.0000,09/28.9379/2023,2000,g  8.0,4.0
# From MPEC 2022-K19
P/2022 B1 (Wierzchos),e,10.9938,325.3881,148.9272,5.468962,0.0770632,0.65361235,88.0870,04/14.0/2025,2000,g 16.5,4.0
# From MPEC 2022-YB4
A/2022 B3,e,132.0510,286.1774,150.7117,637.5596,0.0000612,0.99419112,0.0000,01/16.7727/2022,2000,g 16.5,2.0
# From MPEC 2022-GA9
C/2022 B4 (Bok),e,20.0556,340.5282,153.0103,402.7753,0.0001219,0.99658371,0.0000,01/30.3861/2022,2000,g 21.0,4.0
# From MPEC 2023-J29
P/2022 BV9 (Lemmon),e,11.9244,337.3093,16.3191,4.365470,0.1080582,0.23361849,176.6202,04/14.0/2025,2000,g  9.5,4.0
# From MPEC 2023-J29
P/2022 C1 (PANSTARRS),e,4.7630,113.1008,9.4461,7.233386,0.0506631,0.44910130,63.6134,04/14.0/2025,2000,g 12.0,4.0
# From MPEC 2023-VM5
P/2022 C2 (PANSTARRS),e,9.9849,135.2633,89.1430,6.033298,0.0665077,0.44193885,65.3191,04/14.0/2025,2000,g 12.5,4.0
# From MPEC 2023-UR6
P/2022 C3 (PANSTARRS),e,12.8246,139.0406,93.8104,9.616060,0.0330528,0.54547020,33.6741,04/14.0/2025,2000,g 11.5,4.0
# From MPEC 2022-K19
P/2022 D1 (PANSTARRS),e,44.0688,47.9505,88.6597,7.405444,0.0489077,0.54794472,64.7684,04/14.0/2025,2000,g 12.5,4.0
# From MPEC 2022-K19
C/2022 D2 (Kowalski),e,22.6783,312.3668,177.8457,394.6442,0.0001257,0.99606571,0.0000,03/27.9971/2022,2000,g 17.0,4.0
# From MPEC 2022-L66
P/2022 E1 (Christensen),e,19.0070,113.3427,114.9113,3.777967,0.1342199,0.22059164,139.5281,04/14.0/2025,2000,g 13.5,4.0
# From MPC182879
C/2022 E2 (ATLAS),h,09/14.1408/2024,137.1409,125.3965,41.7458,1.000483,3.666389,2000,5.0,4.0
# From MPEC 2024-GJ3
C/2022 E3 (ZTF),e,109.1740,302.5137,145.8226,208425,0.0000000,0.99999466,0.0000,01/12.5528/2023,2000,g  7.5,4.0
# From MPEC 2024-PC5
C/2022 F1 (ATLAS),e,58.0046,350.6345,278.3256,6581,0.0000018,0.99909183,0.0000,08/05.5834/2022,2000,g  7.0,4.0
# From MPEC 2022-QD9
C/2022 F2 (NEOWISE),e,97.3151,58.7829,200.5975,23.79182,0.0084930,0.93319409,9.4997,04/14.0/2025,2000,g 14.5,4.0
# From MPEC 2024-JU4
C/2022 H1 (PANSTARRS),e,49.8598,6.3305,246.2924,854.3962,0.0000395,0.99100029,0.0000,01/18.6917/2024,2000,g  6.0,4.0
# From MPEC 2022-VC5
C/2022 J1 (Maury-Attard),e,105.9592,280.8002,305.6195,47.51937,0.0030088,0.96631549,3.4592,04/14.0/2025,2000,g 14.9,4.0
# From MPEC 2023-M14
C/2022 J2 (Bok),e,149.1407,252.6740,133.1319,89.96947,0.0011549,0.97968417,0.0000,10/26.7379/2022,2000,g  9.0,4.0
# From MPEC 2024-YC7
C/2022 JK5 (PANSTARRS),e,16.8256,59.6516,247.3811,43.97123,0.0033803,0.93870871,2.4201,04/14.0/2025,2000,g 11.0,4.0
# From MPEC 2022-ST7
C/2022 K1 (Leonard),h,12/16.6855/2021,41.9733,136.3565,142.5601,1.000973,3.986535,2000,11.0,4.0
# From MPEC 2023-CD7
C/2022 L1 (Catalina),e,123.4386,300.0318,59.8082,436.0750,0.0001082,0.99635152,0.0000,09/27.8363/2022,2000,g 15.8,4.0
# From MPC182879
C/2022 L2 (ATLAS),h,03/12.2077/2024,129.3133,39.2410,199.9155,1.000960,2.693100,2000,6.5,4.0
# From MPEC 2024-DC6
P/2022 L3 (ATLAS),e,21.5386,29.8212,10.4093,6.506119,0.0593911,0.62750162,53.2796,04/14.0/2025,2000,g 16.5,4.0
# From MPEC 2022-N37
C/2022 L4 (PANSTARRS),e,141.2444,66.0635,125.2637,283.0621,0.0002070,0.98936830,0.0000,12/09.0667/2021,2000,g 14.0,4.0
# From MPEC 2024-GJ3
C/2022 N1 (Attard-Maury),e,164.7271,301.8786,41.0013,36.67331,0.0044379,0.95966611,4.2034,04/14.0/2025,2000,g 16.9,4.0
# From MPEC 2025-GB9
C/2022 N2 (PANSTARRS),h,07/31.7797/2025,5.5029,319.7408,75.3930,1.003289,3.825401,2000,6.0,4.0
# From MPEC 2024-A43
C/2022 O1 (ATLAS),h,02/15.4955/2022,71.0486,49.9124,268.9421,1.001523,7.434653,2000,6.0,4.0
# From MPEC 2023-HD1
P/2022 O2 (PANSTARRS),e,9.4191,330.4919,48.6654,6.305497,0.0622479,0.72101491,51.5540,04/14.0/2025,2000,g 16.2,4.0
# From MPEC 2023-N01
C/2022 P1 (NEOWISE),e,154.5900,205.0717,249.8865,18.47433,0.0124123,0.91378723,10.7653,04/14.0/2025,2000,g 13.0,4.0
# From MPEC 2023-XP6
P/2022 P2 (ZTF),e,12.4407,291.1765,137.7636,4.491412,0.1035451,0.55804631,104.3688,04/14.0/2025,2000,g 12.5,4.0
# From MPEC 2023-HD1
C/2022 P3 (ZTF),e,59.5170,72.2172,0.2114,262.3654,0.0002319,0.99022049,0.0000,07/27.5286/2022,2000,g  9.0,4.0
# From MPEC 2023-R20
C/2022 Q2 (ATLAS),e,151.4620,352.9610,44.0388,32.80719,0.0052451,0.94994904,4.2132,04/14.0/2025,2000,g 13.0,4.0
# From MPC182880
C/2022 QE78 (ATLAS),h,09/11.3021/2025,36.5985,119.8950,0.5474,1.003744,5.476230,2000,5.0,4.0
# From MPEC 2024-M41
P/2022 R1 (PANSTARRS),e,7.3759,175.6911,221.8188,7.152091,0.0515293,0.50134019,28.7187,04/14.0/2025,2000,g 11.5,4.0
# From MPEC 2022-Y15
C/2022 R2 (ATLAS),e,52.8972,60.3986,78.3203,436.5551,0.0001081,0.99855595,0.0000,10/25.5114/2022,2000,g 17.0,4.0
# From MPC182880
C/2022 R3 (Leonard),h,03/05.8962/2023,43.0736,8.2573,72.9287,1.001529,5.131659,2000,9.0,4.0
# From MPEC 2022-X67
P/2022 R4 (PANSTARRS),e,21.0104,176.6351,197.4953,3.838444,0.1310603,0.48952448,132.2434,04/14.0/2025,2000,g 16.5,4.0
# From MPEC 2022-WQ9
P/2022 R5 (PANSTARRS),e,15.2924,115.0437,240.5485,3.069768,0.1832507,0.19478061,193.0461,04/14.0/2025,2000,g 16.0,4.0
# From MPEC 2025-GB9
C/2022 R6 (PANSTARRS),h,08/26.0828/2025,57.0187,150.7862,319.9052,1.004994,6.565623,2000,5.0,4.0
# From MPEC 2023-HD1
P/2022 S1 (PANSTARRS),e,34.5679,136.0906,262.8441,6.409008,0.0607460,0.50769074,58.8569,04/14.0/2025,2000,g 15.1,4.0
# From MPEC 2022-VC5
C/2022 S3 (PANSTARRS),h,01/21.6477/2023,78.4890,157.2596,267.9826,1.000390,0.838644,2000,17.0,4.0
# From MPEC 2024-PC5
C/2022 S4 (Lemmon),e,101.2171,220.1778,268.5617,1396,0.0000189,0.99802174,0.0000,07/18.7774/2024,2000,g  8.0,4.0
# From MPEC 2023-HD1
C/2022 S5 (PANSTARRS),e,136.5153,214.8648,232.8033,20.51756,0.0106051,0.89383530,9.2079,04/14.0/2025,2000,g 16.3,4.0
# From MPEC 2024-O39
C/2022 T1 (Lemmon),h,02/17.4356/2024,22.5426,236.9166,324.2936,1.000324,3.444414,2000,9.0,4.0
# From MPEC 2025-GB9
C/2022 U1 (Leonard),h,03/26.0679/2024,128.1485,72.5272,78.6104,1.000116,4.202255,2000,8.5,4.0
# From MPEC 2023-VM5
